{"type": "FeatureCollection", "features": [ {"type": "Feature", "properties": {"norad_id": 66393, "name": "STARLINK-35652", "group": "last-30-days", "lat": -52.86135229371332, "lon": -128.1408589965769, "alt_km": 424.53006489749805, "timestamp": "2025-12-02T07:10:07.865508+00:00", "meta": {"OBJECT_NAME": "STARLINK-35652", "OBJECT_ID": "2025-257P", "EPOCH": "2025-12-01T20:00:01.999008", "MEAN_MOTION": 15.49231246, "ECCENTRICITY": 0.0001614, "INCLINATION": 53.1587, "RA_OF_ASC_NODE": 315.9617, "ARG_OF_PERICENTER": 90.624, "MEAN_ANOMALY": 107.3603, "EPHEMERIS_TYPE": 0, "CLASSIFICATION_TYPE": "U", "NORAD_CAT_ID": 66393, "ELEMENT_SET_NO": 999, "REV_AT_EPOCH": 474, "BSTAR": 0.0023634, "MEAN_MOTION_DOT": 0.0013289, "MEAN_MOTION_DDOT": 0}, "tle": {"line1": "1 66393U 25257P   25335.83335647  .00132890  00000+0  23634-2 0  9997", "line2": "2 66393  53.1587 315.9617 0001614  90.6240 107.3603 15.49231246  4745"}}, "geometry": {"type": "Point", "coordinates": [-128.1408589965769, -52.86135229371332]}}, {"type": "Feature", "properties": {"norad_id": 66394, "name": "STARLINK-35672", "group": "last-30-days", "lat": -52.26489505864044, "lon": -121.93300805445126, "alt_km": 424.4310545129101, "timestamp": "2025-12-02T07:10:07.865517+00:00", "meta": {"OBJECT_NAME": "STARLINK-35672", "OBJECT_ID": "2025-257Q", "EPOCH": "2025-12-01T20:00:01.999008", "MEAN_MOTION": 15.49223297, "ECCENTRICITY": 0.0001469, "INCLINATION": 53.1587, "RA_OF_ASC_NODE": 315.9528, "ARG_OF_PERICENTER": 91.3796, "MEAN_ANOMALY": 110.4492, "EPHEMERIS_TYPE": 0, "CLASSIFICATION_TYPE": "U", "NORAD_CAT_ID": 66394, "ELEMENT_SET_NO": 999, "REV_AT_EPOCH": 474, "BSTAR": 0.0023986, "MEAN_MOTION_DOT": 0.0013487, "MEAN_MOTION_DDOT": 0}, "tle": {"line1": "1 66394U 25257Q   25335.83335647  .00134870  00000+0  23986-2 0  9998", "line2": "2 66394  53.1587 315.9528 0001469  91.3796 110.4492 15.49223297  4747"}}, "geometry": {"type": "Point", "coordinates": [-121.93300805445126, -52.26489505864044]}}, {"type": "Feature", "properties": {"norad_id": 66395, "name": "STARLINK-35681", "group": "last-30-days", "lat": -51.844609003644585, "lon": -118.88706272168403, "alt_km": 424.44731415376737, "timestamp": "2025-12-02T07:10:07.865527+00:00", "meta": {"OBJECT_NAME": "STARLINK-35681", "OBJECT_ID": "2025-257R", "EPOCH": "2025-12-01T20:00:01.999008", "MEAN_MOTION": 15.49232599, "ECCENTRICITY": 0.0001578, "INCLINATION": 53.1587, "RA_OF_ASC_NODE": 315.9497, "ARG_OF_PERICENTER": 103.0537, "MEAN_ANOMALY": 100.675, "EPHEMERIS_TYPE": 0, "CLASSIFICATION_TYPE": "U", "NORAD_CAT_ID": 66395, "ELEMENT_SET_NO": 999, "REV_AT_EPOCH": 458, "BSTAR": 0.0025455, "MEAN_MOTION_DOT": 0.00143363, "MEAN_MOTION_DDOT": 0}, "tle": {"line1": "1 66395U 25257R   25335.83335647  .00143363  00000+0  25455-2 0  9999", "line2": "2 66395  53.1587 315.9497 0001578 103.0537 100.6750 15.49232599  4583"}}, "geometry": {"type": "Point", "coordinates": [-118.88706272168403, -51.844609003644585]}}, {"type": "Feature", "properties": {"norad_id": 66396, "name": "STARLINK-35669", "group": "last-30-days", "lat": -51.35387179964143, "lon": -115.94127763829748, "alt_km": 424.5981980554898, "timestamp": "2025-12-02T07:10:07.865540+00:00", "meta": {"OBJECT_NAME": "STARLINK-35669", "OBJECT_ID": "2025-257S", "EPOCH": "2025-12-01T20:00:01.999008", "MEAN_MOTION": 15.49308582, "ECCENTRICITY": 0.0001538, "INCLINATION": 53.1588, "RA_OF_ASC_NODE": 315.9451, "ARG_OF_PERICENTER": 90.4983, "MEAN_ANOMALY": 115.1318, "EPHEMERIS_TYPE": 0, "CLASSIFICATION_TYPE": "U", "NORAD_CAT_ID": 66396, "ELEMENT_SET_NO": 999, "REV_AT_EPOCH": 474, "BSTAR": -0.00030823, "MEAN_MOTION_DOT": -0.00017552, "MEAN_MOTION_DDOT": 0}, "tle": {"line1": "1 66396U 25257S   25335.83335647 -.00017552  00000+0 -30823-3 0  9998", "line2": "2 66396  53.1588 315.9451 0001538  90.4983 115.1318 15.49308582  4740"}}, "geometry": {"type": "Point", "coordinates": [-115.94127763829748, -51.35387179964143]}}, {"type": "Feature", "properties": {"norad_id": 66397, "name": "STARLINK-35510", "group": "last-30-days", "lat": -50.7821794493639, "lon": -113.02155471917051, "alt_km": 424.15586424163666, "timestamp": "2025-12-02T07:10:07.865551+00:00", "meta": {"OBJECT_NAME": "STARLINK-35510", "OBJECT_ID": "2025-257T", "EPOCH": "2025-12-01T20:00:01.999008", "MEAN_MOTION": 15.49232422, "ECCENTRICITY": 0.0001129, "INCLINATION": 53.1588, "RA_OF_ASC_NODE": 315.9416, "ARG_OF_PERICENTER": 99.6234, "MEAN_ANOMALY": 107.9468, "EPHEMERIS_TYPE": 0, "CLASSIFICATION_TYPE": "U", "NORAD_CAT_ID": 66397, "ELEMENT_SET_NO": 999, "REV_AT_EPOCH": 474, "BSTAR": 0.0022842, "MEAN_MOTION_DOT": 0.00128351, "MEAN_MOTION_DDOT": 0}, "tle": {"line1": "1 66397U 25257T   25335.83335647  .00128351  00000+0  22842-2 0  9998", "line2": "2 66397  53.1588 315.9416 0001129  99.6234 107.9468 15.49232422  4742"}}, "geometry": {"type": "Point", "coordinates": [-113.02155471917051, -50.7821794493639]}}, {"type": "Feature", "properties": {"norad_id": 66398, "name": "STARLINK-35642", "group": "last-30-days", "lat": -50.141662772148145, "lon": -110.18784560995515, "alt_km": 424.3184690376056, "timestamp": "2025-12-02T07:10:07.865561+00:00", "meta": {"OBJECT_NAME": "STARLINK-35642", "OBJECT_ID": "2025-257U", "EPOCH": "2025-12-01T20:00:01.999008", "MEAN_MOTION": 15.49229802, "ECCENTRICITY": 0.0001435, "INCLINATION": 53.1588, "RA_OF_ASC_NODE": 315.937, "ARG_OF_PERICENTER": 98.7749, "MEAN_ANOMALY": 110.7122, "EPHEMERIS_TYPE": 0, "CLASSIFICATION_TYPE": "U", "NORAD_CAT_ID": 66398, "ELEMENT_SET_NO": 999, "REV_AT_EPOCH": 474, "BSTAR": 0.0024886, "MEAN_MOTION_DOT": 0.00140076, "MEAN_MOTION_DDOT": 0}, "tle": {"line1": "1 66398U 25257U   25335.83335647  .00140076  00000+0  24886-2 0  9997", "line2": "2 66398  53.1588 315.9370 0001435  98.7749 110.7122 15.49229802  4740"}}, "geometry": {"type": "Point", "coordinates": [-110.18784560995515, -50.141662772148145]}}, {"type": "Feature", "properties": {"norad_id": 66399, "name": "STARLINK-35657", "group": "last-30-days", "lat": -49.431854100618175, "lon": -107.42523936050829, "alt_km": 424.33467754111916, "timestamp": "2025-12-02T07:10:07.865571+00:00", "meta": {"OBJECT_NAME": "STARLINK-35657", "OBJECT_ID": "2025-257V", "EPOCH": "2025-12-01T20:00:01.999008", "MEAN_MOTION": 15.49234504, "ECCENTRICITY": 0.0001565, "INCLINATION": 53.1587, "RA_OF_ASC_NODE": 315.9332, "ARG_OF_PERICENTER": 99.4829, "MEAN_ANOMALY": 111.9121, "EPHEMERIS_TYPE": 0, "CLASSIFICATION_TYPE": "U", "NORAD_CAT_ID": 66399, "ELEMENT_SET_NO": 999, "REV_AT_EPOCH": 474, "BSTAR": 0.0027193, "MEAN_MOTION_DOT": 0.00153393, "MEAN_MOTION_DDOT": 0}, "tle": {"line1": "1 66399U 25257V   25335.83335647  .00153393  00000+0  27193-2 0  9998", "line2": "2 66399  53.1587 315.9332 0001565  99.4829 111.9121 15.49234504  4746"}}, "geometry": {"type": "Point", "coordinates": [-107.42523936050829, -49.431854100618175]}}, {"type": "Feature", "properties": {"norad_id": 66400, "name": "STARLINK-35667", "group": "last-30-days", "lat": -47.84260692741885, "lon": -102.20606807128503, "alt_km": 424.5973480222483, "timestamp": "2025-12-02T07:10:07.865583+00:00", "meta": {"OBJECT_NAME": "STARLINK-35667", "OBJECT_ID": "2025-257W", "EPOCH": "2025-12-01T20:00:01.999008", "MEAN_MOTION": 15.49360287, "ECCENTRICITY": 0.0001645, "INCLINATION": 53.1586, "RA_OF_ASC_NODE": 315.9243, "ARG_OF_PERICENTER": 93.1413, "MEAN_ANOMALY": 122.0477, "EPHEMERIS_TYPE": 0, "CLASSIFICATION_TYPE": "U", "NORAD_CAT_ID": 66400, "ELEMENT_SET_NO": 999, "REV_AT_EPOCH": 474, "BSTAR": -0.0017308, "MEAN_MOTION_DOT": -0.00095716, "MEAN_MOTION_DDOT": 0}, "tle": {"line1": "1 66400U 25257W   25335.83335647 -.00095716  00000+0 -17308-2 0  9994", "line2": "2 66400  53.1586 315.9243 0001645  93.1413 122.0477 15.49360287  4743"}}, "geometry": {"type": "Point", "coordinates": [-102.20606807128503, -47.84260692741885]}}, {"type": "Feature", "properties": {"norad_id": 66401, "name": "STARLINK-35668", "group": "last-30-days", "lat": -46.94612863247853, "lon": -99.67420457134686, "alt_km": 424.2226271270374, "timestamp": "2025-12-02T07:10:07.865593+00:00", "meta": {"OBJECT_NAME": "STARLINK-35668", "OBJECT_ID": "2025-257X", "EPOCH": "2025-12-01T20:00:01.999008", "MEAN_MOTION": 15.49238081, "ECCENTRICITY": 0.0001512, "INCLINATION": 53.1587, "RA_OF_ASC_NODE": 315.9211, "ARG_OF_PERICENTER": 100.432, "MEAN_ANOMALY": 116.7135, "EPHEMERIS_TYPE": 0, "CLASSIFICATION_TYPE": "U", "NORAD_CAT_ID": 66401, "ELEMENT_SET_NO": 999, "REV_AT_EPOCH": 474, "BSTAR": 0.0025502, "MEAN_MOTION_DOT": 0.00143661, "MEAN_MOTION_DDOT": 0}, "tle": {"line1": "1 66401U 25257X   25335.83335647  .00143661  00000+0  25502-2 0  9991", "line2": "2 66401  53.1587 315.9211 0001512 100.4320 116.7135 15.49238081  4749"}}, "geometry": {"type": "Point", "coordinates": [-99.67420457134686, -46.94612863247853]}}, {"type": "Feature", "properties": {"norad_id": 66402, "name": "STARLINK-35644", "group": "last-30-days", "lat": -48.66147519950271, "lon": -104.75624096887307, "alt_km": 424.2688720942406, "timestamp": "2025-12-02T07:10:07.865603+00:00", "meta": {"OBJECT_NAME": "STARLINK-35644", "OBJECT_ID": "2025-257Y", "EPOCH": "2025-12-01T20:00:01.999008", "MEAN_MOTION": 15.49234206, "ECCENTRICITY": 0.0001502, "INCLINATION": 53.1588, "RA_OF_ASC_NODE": 315.9289, "ARG_OF_PERICENTER": 100.3236, "MEAN_ANOMALY": 112.9898, "EPHEMERIS_TYPE": 0, "CLASSIFICATION_TYPE": "U", "NORAD_CAT_ID": 66402, "ELEMENT_SET_NO": 999, "REV_AT_EPOCH": 474, "BSTAR": 0.0027119, "MEAN_MOTION_DOT": 0.00152964, "MEAN_MOTION_DDOT": 0}, "tle": {"line1": "1 66402U 25257Y   25335.83335647  .00152964  00000+0  27119-2 0  9994", "line2": "2 66402  53.1588 315.9289 0001502 100.3236 112.9898 15.49234206  4749"}}, "geometry": {"type": "Point", "coordinates": [-104.75624096887307, -48.66147519950271]}}]}